NORAD_CAT_ID,OBJECT_NAME,OBJECT_TYPE,EPOCH,MEAN_MOTION,ECCENTRICITY,INCLINATION,RA_OF_ASC_NODE,ARG_OF_PERICENTER,MEAN_ANOMALY,BSTAR,MEAN_MOTION_DOT,MEAN_MOTION_DDOT,TLE_LINE0,TLE_LINE1,TLE_LINE2,SEMIMAJOR_AXIS,PERIOD,APOGEE,PERIGEE,DECAYED
52350.0,STARLINK-3754,PAYLOAD,2022-10-17 11:26:54,15.08832368,0.0002423999999999,53.2169,2.1771,32.7908,327.3234,8.2559e-06,-1.57e-06,0.0,0 STARLINK-3754,1 52350U 22045V   22290.47702026 -.00000157  00000-0  82559-5 0  9999,2 52350  53.2169   2.1771 0002424  32.7908 327.3234 15.08832368 28707,6917.904,95.438,541.446,538.092,0.0
52350.0,STARLINK-3754,PAYLOAD,2022-10-17 14:37:40,15.08834183,0.0002379,53.2164,1.5826,31.6483,328.4651,1.6905e-05,-1.9e-07,0.0,0 STARLINK-3754,1 52350U 22045V   22290.60949913 -.00000019  00000-0  16905-4 0  9990,2 52350  53.2164   1.5826 0002379  31.6483 328.4651 15.08834183 28725,6917.898,95.438,541.409,538.117,0.0
52350.0,STARLINK-3754,PAYLOAD,2022-10-18 11:17:42,15.08825464,0.00025,53.2165,357.7166,29.2318,330.8814,-8.512700000000001e-05,-1.642e-05,0.0,0 STARLINK-3754,1 52350U 22045V   22291.47062920 -.00001642  00000-0 -85127-4 0  9996,2 52350  53.2165 357.7166 0002500  29.2318 330.8814 15.08825464 28859,6917.925,95.438,541.519,538.06,0.0
52350.0,STARLINK-3754,PAYLOAD,2022-10-18 14:28:28,15.08832856,0.0002489,53.2163,357.1206,26.5557,333.5563,-4.4117e-05,-9.9e-06,0.0,0 STARLINK-3754,1 52350U 22045V   22291.60310364 -.00000990  00000-0 -44117-4 0  9998,2 52350  53.2163 357.1206 0002489  26.5557 333.5563 15.08832856 28873,6917.901999999999,95.438,541.489,538.045,0.0
52350.0,STARLINK-3754,PAYLOAD,2022-10-19 11:08:28,15.08839842,0.0002533,53.2167,353.2567,33.3681,326.7471,8.2002e-05,1.017e-05,0.0,0 STARLINK-3754,1 52350U 22045V   22292.46422032  .00001017  00000-0  82002-4 0  9993,2 52350  53.2167 353.2567 0002533  33.3681 326.7471 15.08839842 29008,6917.880999999999,95.438,541.498,537.994,0.0
52350.0,STARLINK-3754,PAYLOAD,2022-10-19 14:19:15,15.08834201,0.0002833,53.2165,352.6614,30.434,329.6816,3.1722e-05,2.16e-06,0.0,0 STARLINK-3754,1 52350U 22045V   22292.59670631  .00000216  00000-0  31722-4 0  9990,2 52350  53.2165 352.6614 0002833  30.4340 329.6816 15.08834201 29026,6917.898,95.438,541.7230000000002,537.803,0.0
52350.0,STARLINK-3754,PAYLOAD,2022-10-20 10:59:16,15.08828539,0.0002505999999999,53.2157,348.7948,27.1225,332.9898,7.2228e-05,8.61e-06,0.0,0 STARLINK-3754,1 52350U 22045V   22293.45782773  .00000861  00000-0  72228-4 0  9999,2 52350  53.2157 348.7948 0002506  27.1225 332.9898 15.08828539 29153,6917.915,95.438,541.514,538.047,0.0
52350.0,STARLINK-3754,PAYLOAD,2022-10-21 04:28:30,15.08840338,0.0002554,53.2163,345.5239,30.1313,329.9825,-3.7219e-05,-8.81e-06,0.0,0 STARLINK-3754,1 52350U 22045V   22294.18646743 -.00000881  00000-0 -37219-4 0  9991,2 52350  53.2163 345.5239 0002554  30.1313 329.9825 15.08840338 29262,6917.879,95.438,541.511,537.9780000000002,0.0
52350.0,STARLINK-3754,PAYLOAD,2022-10-21 10:50:03,15.08837732,0.0002573999999999,53.2154,344.334,28.2467,331.8664,-5.1822e-05,-1.113e-05,0.0,0 STARLINK-3754,1 52350U 22045V   22294.45142946 -.00001113  00000-0 -51822-4 0  9992,2 52350  53.2154 344.3340 0002574  28.2467 331.8664 15.08837732 29304,6917.887,95.438,541.533,537.972,0.0
52350.0,STARLINK-3754,PAYLOAD,2022-10-21 12:25:26,15.08838005,0.0002552999999999,53.2163,344.0374,30.3651,329.7489,-4.9437e-05,-1.075e-05,0.0,0 STARLINK-3754,1 52350U 22045V   22294.51766939 -.00001075  00000-0 -49437-4 0  9999,2 52350  53.2163 344.0374 0002553  30.3651 329.7489 15.08838005 29310,6917.886,95.438,541.518,537.985,0.0
52350.0,STARLINK-3754,PAYLOAD,2022-10-22 02:43:54,15.0886289,0.0002646,53.216,341.3611,20.8891,339.2209,-0.00020021,-3.476e-05,0.0,0 STARLINK-3754,1 52350U 22045V   22295.11382198 -.00003476  00000-0 -20021-3 0  9991,2 52350  53.2160 341.3611 0002646  20.8891 339.2209 15.08862890 29409,6917.81,95.436,541.506,537.845,0.0
52350.0,STARLINK-3754,PAYLOAD,2022-10-22 12:16:13,15.08839164,0.0002791999999999,53.2159,339.577,18.3828,341.7265,-1.597e-05,-5.43e-06,0.0,0 STARLINK-3754,1 52350U 22045V   22295.51126712 -.00000543  00000-0 -15970-4 0  9993,2 52350  53.2159 339.5770 0002792  18.3828 341.7265 15.08839164 29460,6917.8830000000025,95.438,541.679,537.816,0.0
52350.0,STARLINK-3754,PAYLOAD,2022-10-22 20:13:08,15.08848833,0.0002692,53.2162,338.0902,24.6442,335.4678,1.3904e-05,-6.7e-07,0.0,0 STARLINK-3754,1 52350U 22045V   22295.84245941 -.00000067  00000-0  13904-4 0  9990,2 52350  53.2162 338.0902 0002692  24.6442 335.4678 15.08848833 29513,6917.853,95.437,541.581,537.856,0.0
52350.0,STARLINK-3754,PAYLOAD,2022-10-23 12:06:59,15.08843861,0.0002606,53.216,335.1157,25.2528,334.8591,7.6266e-05,9.26e-06,0.0,0 STARLINK-3754,1 52350U 22045V   22296.50485784  .00000926  00000-0  76266-4 0  9998,2 52350  53.2160 335.1157 0002606  25.2528 334.8591 15.08843861 29612,6917.869000000002,95.437,541.536,537.931,0.0
52350.0,STARLINK-3754,PAYLOAD,2022-10-24 11:57:46,15.08839191,0.0002562,53.2166,330.6562,16.3728,343.7347,1.394e-05,-6.7e-07,0.0,0 STARLINK-3754,1 52350U 22045V   22297.49845770 -.00000067  00000-0  13940-4 0  9999,2 52350  53.2166 330.6562 0002562  16.3728 343.7347 15.08839191 29767,6917.8830000000025,95.438,541.52,537.976,0.0
52350.0,STARLINK-3754,PAYLOAD,2022-10-24 13:33:09,15.0884451,0.0002496,53.2165,330.3579,27.3126,332.7997,4.3413e-05,4.03e-06,0.0,0 STARLINK-3754,1 52350U 22045V   22297.56469290  .00000403  00000-0  43413-4 0  9997,2 52350  53.2165 330.3579 0002496  27.3126 332.7997 15.08844510 29772,6917.8669999999975,95.437,541.4580000000002,538.005,0.0
52350.0,STARLINK-3754,PAYLOAD,2022-10-25 08:37:49,15.08827417,0.0002686999999999,53.2159,326.7887,27.6535,332.46,-0.00015815,-2.804e-05,0.0,0 STARLINK-3754,1 52350U 22045V   22298.35959755 -.00002804  00000-0 -15815-3 0  9998,2 52350  53.2159 326.7887 0002687  27.6535 332.4600 15.08827417 29893,6917.919,95.438,541.643,537.925,0.0
52350.0,STARLINK-3754,PAYLOAD,2022-10-25 11:48:35,15.08829556,0.0002807,53.2159,326.1952,26.1142,333.9991,-0.00010938,-2.029e-05,0.0,0 STARLINK-3754,1 52350U 22045V   22298.49207580 -.00002029  00000-0 -10938-3 0  9995,2 52350  53.2159 326.1952 0002807  26.1142 333.9991 15.08829556 29910,6917.9119999999975,95.438,541.719,537.835,0.0
52350.0,STARLINK-3754,PAYLOAD,2022-10-26 11:39:22,15.0880136,0.0002759,53.2156,321.7346,30.8273,329.2881,0.00045022,6.877e-05,0.0,0 STARLINK-3754,1 52350U 22045V   22299.48567669  .00006877  00000-0  45022-3 0  9997,2 52350  53.2156 321.7346 0002759  30.8273 329.2881 15.08801360 30065,6917.998000000001,95.44,541.7719999999998,537.955,0.0
52350.0,STARLINK-3754,PAYLOAD,2022-10-27 03:33:13,15.08840009,0.0002903,53.2155,318.7606,27.9769,332.1378,0.00016305,2.307e-05,0.0,0 STARLINK-3754,1 52350U 22045V   22300.14806799  .00002307  00000-0  16305-3 0  9999,2 52350  53.2155 318.7606 0002903  27.9769 332.1378 15.08840009 30165,6917.88,95.438,541.754,537.737,0.0
52350.0,STARLINK-3754,PAYLOAD,2022-10-27 11:30:09,15.08834923,0.0002963,53.2154,317.2736,27.1214,332.9933,9.9179e-05,1.29e-05,0.0,0 STARLINK-3754,1 52350U 22045V   22300.47927221  .00001290  00000-0  99179-4 0  9990,2 52350  53.2154 317.2736 0002963  27.1214 332.9933 15.08834923 30214,6917.896,95.438,541.811,537.711,0.0
52350.0,STARLINK-3754,PAYLOAD,2022-10-27 17:51:41,15.08839001,0.0002936,53.2152,316.0846,28.0519,332.0631,0.00011371,1.522e-05,0.0,0 STARLINK-3754,1 52350U 22045V   22300.74423054  .00001522  00000-0  11371-3 0  9990,2 52350  53.2152 316.0846 0002936  28.0519 332.0631 15.08839001 30251,6917.8830000000025,95.438,541.78,537.717,0.0
52350.0,STARLINK-3754,PAYLOAD,2022-10-28 06:34:46,15.08849171,0.0002943,53.2152,313.7048,28.1859,331.9292,6.6492e-05,7.699999999999999e-06,0.0,0 STARLINK-3754,1 52350U 22045V   22301.27414408  .00000770  00000-0  66492-4 0  9991,2 52350  53.2152 313.7048 0002943  28.1859 331.9292 15.08849171 30334,6917.852,95.437,541.753,537.681,0.0
52350.0,STARLINK-3754,PAYLOAD,2022-10-28 09:45:32,15.08845423,0.0002953999999999,53.2152,313.1101,28.2272,331.8879,3.3965e-05,2.52e-06,0.0,0 STARLINK-3754,1 52350U 22045V   22301.40662696  .00000252  00000-0  33965-4 0  9994,2 52350  53.2152 313.1101 0002954  28.2272 331.8879 15.08845423 30358,6917.864000000001,95.437,541.7719999999998,537.685,0.0
52350.0,STARLINK-3754,PAYLOAD,2022-10-28 17:42:28,15.08845851,0.0002904999999999,53.2162,311.6237,33.3828,326.7347,3.1524e-05,2.13e-06,0.0,0 STARLINK-3754,1 52350U 22045V   22301.73782531  .00000213  00000-0  31524-4 0  9997,2 52350  53.2162 311.6237 0002905  33.3828 326.7347 15.08845851 30406,6917.863,95.437,541.737,537.7180000000002,0.0
52350.0,STARLINK-3754,PAYLOAD,2022-10-29 08:00:55,15.08850788,0.0002883999999999,53.2155,308.9469,33.6296,326.4879,-2.2209e-05,-6.42e-06,0.0,0 STARLINK-3754,1 52350U 22045V   22302.33398141 -.00000642  00000-0 -22209-4 0  9992,2 52350  53.2155 308.9469 0002884  33.6296 326.4879 15.08850788 30493,6917.847,95.437,541.7080000000002,537.717,0.0
52350.0,STARLINK-3754,PAYLOAD,2022-10-29 17:33:16,15.08831132,0.0002998999999999,53.2158,307.164,34.1373,325.9811,-8.2691e-05,-1.604e-05,0.0,0 STARLINK-3754,1 52350U 22045V   22302.73143594 -.00001604  00000-0 -82691-4 0  9996,2 52350  53.2158 307.1640 0002999  34.1373 325.9811 15.08831132 30556,6917.906999999997,95.438,541.847,537.698,0.0
52350.0,STARLINK-3754,PAYLOAD,2022-10-30 11:02:29,15.08843486,0.0003136,53.2153,303.8921,31.3423,328.7755,-4.1545e-05,-9.5e-06,0.0,0 STARLINK-3754,1 52350U 22045V   22303.46006767 -.00000950  00000-0 -41545-4 0  9993,2 52350  53.2153 303.8921 0003136  31.3423 328.7755 15.08843486 30660,6917.87,95.437,541.904,537.565,0.0
52350.0,STARLINK-3754,PAYLOAD,2022-10-30 17:24:02,15.08842816,0.0003088,53.2154,302.7026,32.4226,327.6956,1.3038e-05,-8.1e-07,0.0,0 STARLINK-3754,1 52350U 22045V   22303.72502555 -.00000081  00000-0  13038-4 0  9998,2 52350  53.2154 302.7026 0003088  32.4226 327.6956 15.08842816 30706,6917.871999999999,95.437,541.873,537.601,0.0
